IRIDIUM 126             
1 42809U 17039G   25018.88490008  .00000171  00000+0  54048-4 0  9999
2 42809  86.3972 208.5328 0001743  93.4722 266.6673 14.34218343396232
IRIDIUM 124             
1 42810U 17039H   25018.89491012  .00000921  00000+0  26779-3 0  9990
2 42810  86.4534 145.3788 0002539  96.9636 263.1854 14.43285014400938
IRIDIUM 128             
1 42811U 17039J   25018.66632605  .00000536  00000+0  18427-3 0  9994
2 42811  86.3945 240.1252 0002141  97.2441 262.8998 14.34226044396231
IRIDIUM 121             
1 42812U 17039K   25018.90393794  .00000188  00000+0  60158-4 0  9997
2 42812  86.3973 208.5489 0002145  89.7283 270.4158 14.34219556396117
IRIDIUM 133             
1 42955U 17061A   25018.83757375  .00000139  00000+0  42625-4 0  9996
2 42955  86.3947 240.1585 0001947  92.2391 267.9028 14.34219353381052
IRIDIUM 100             
1 42956U 17061B   25018.90100280  .00000015  00000+0 -15688-5 0  9996
2 42956  86.3946 240.0629 0002011  94.1408 266.0018 14.34217825381065
IRIDIUM 122             
1 42957U 17061C   25018.86928988  .00000018  00000+0 -59053-6 0  9993
2 42957  86.3946 240.0740 0001832  90.8390 269.3016 14.34217801381061
IRIDIUM 129             
1 42958U 17061D   25018.68534696  .00000475  00000+0  16273-3 0  9993
2 42958  86.3946 240.2133 0001809  77.3854 282.7543 14.34214143381058
